[{"OBJECT_NAME":"TIANQI-29","OBJECT_ID":"2024-170A","EPOCH":"2026-03-09T20:46:41.243232","MEAN_MOTION":13.99108812,"ECCENTRICITY":0.00055066,"INCLINATION":44.8559,"RA_OF_ASC_NODE":219.5799,"ARG_OF_PERICENTER":342.0099,"MEAN_ANOMALY":18.0536,"EPHEMERIS_TYPE":0,"CLASSIFICATION_TYPE":"U","NORAD_CAT_ID":61195,"ELEMENT_SET_NO":999,"REV_AT_EPOCH":7495,"BSTAR":0.00015072092,"MEAN_MOTION_DOT":9.2e-7,"MEAN_MOTION_DDOT":0},{"OBJECT_NAME":"SL-16 DEB","OBJECT_ID":"1992-076C","EPOCH":"2026-03-09T16:15:55.179936","MEAN_MOTION":13.77674682,"ECCENTRICITY":0.01852125,"INCLINATION":71.043,"RA_OF_ASC_NODE":68.0365,"ARG_OF_PERICENTER":280.9922,"MEAN_ANOMALY":196.7653,"EPHEMERIS_TYPE":0,"CLASSIFICATION_TYPE":"U","NORAD_CAT_ID":22221,"ELEMENT_SET_NO":999,"REV_AT_EPOCH":67353,"BSTAR":0.00010135778,"MEAN_MOTION_DOT":7.1e-7,"MEAN_MOTION_DDOT":0}]
